[{"OBJECT_NAME":"STARLINK-5598","OBJECT_ID":"2023-014AG","EPOCH":"2026-03-09T10:19:02.756928","MEAN_MOTION":14.98322418,"ECCENTRICITY":0.00036198,"INCLINATION":69.9992,"RA_OF_ASC_NODE":85.1003,"ARG_OF_PERICENTER":272.2762,"MEAN_ANOMALY":87.7982,"EPHEMERIS_TYPE":0,"CLASSIFICATION_TYPE":"U","NORAD_CAT_ID":55421,"ELEMENT_SET_NO":999,"REV_AT_EPOCH":17152,"BSTAR":0.00015150647,"MEAN_MOTION_DOT":1.715e-5,"MEAN_MOTION_DDOT":0},{"OBJECT_NAME":"NOAA 16 DEB","OBJECT_ID":"2000-055HK","EPOCH":"2026-03-09T11:22:55.184448","MEAN_MOTION":14.96713123,"ECCENTRICITY":0.00044813,"INCLINATION":98.9091,"RA_OF_ASC_NODE":257.3123,"ARG_OF_PERICENTER":226.904,"MEAN_ANOMALY":133.1803,"EPHEMERIS_TYPE":0,"CLASSIFICATION_TYPE":"U","NORAD_CAT_ID":41307,"ELEMENT_SET_NO":999,"REV_AT_EPOCH":53055,"BSTAR":0.0073865996,"MEAN_MOTION_DOT":0.00085329,"MEAN_MOTION_DDOT":0}]
